{
    "links": {
        "self": "http://www.neowsapp.com/rest/v1/neo/3836118?api_key=iIulBulltgU6a56xZRHN4H3l9WmuAYTsLGpBGhQ2"
    },
    "id": "3836118",
    "neo_reference_id": "3836118",
    "name": "(2018 VB5)",
    "designation": "2018 VB5",
    "nasa_jpl_url": "http://ssd.jpl.nasa.gov/sbdb.cgi?sstr=3836118",
    "absolute_magnitude_h": 26.6,
    "estimated_diameter": {
        "kilometers": {
            "estimated_diameter_min": 0.0127219879,
            "estimated_diameter_max": 0.0284472297
        },
        "meters": {
            "estimated_diameter_min": 12.7219878539,
            "estimated_diameter_max": 28.4472296503
        },
        "miles": {
            "estimated_diameter_min": 0.0079050743,
            "estimated_diameter_max": 0.0176762835
        },
        "feet": {
            "estimated_diameter_min": 41.7388066307,
            "estimated_diameter_max": 93.330808926
        }
    },
    "is_potentially_hazardous_asteroid": false,
    "close_approach_data": [
        {
            "close_approach_date": "2018-11-06",
            "close_approach_date_full": "2018-Nov-06 11:41",
            "epoch_date_close_approach": 1541504460000,
            "relative_velocity": {
                "kilometers_per_second": "4.8795521133",
                "kilometers_per_hour": "17566.3876079821",
                "miles_per_hour": "10915.0701223042"
            },
            "miss_distance": {
                "astronomical": "0.0428773823",
                "lunar": "16.6793017147",
                "kilometers": "6414365.063255701",
                "miles": "3985701.6308666338"
            },
            "orbiting_body": "Earth"
        }
    ],
    "orbital_data": {
        "orbit_id": "6",
        "orbit_determination_date": "2020-09-22 06:45:11",
        "first_observation_date": "2018-11-07",
        "last_observation_date": "2018-11-29",
        "data_arc_in_days": 22,
        "observations_used": 46,
        "orbit_uncertainty": "7",
        "minimum_orbit_intersection": ".0441042",
        "jupiter_tisserand_invariant": "4.421",
        "epoch_osculation": "2459000.5",
        "eccentricity": ".325542129712999",
        "semi_major_axis": "1.53026963405407",
        "inclination": "5.473229970577564",
        "ascending_node_longitude": "231.6560912151099",
        "orbital_period": "691.4334206507141",
        "perihelion_distance": "1.032102398348976",
        "perihelion_argument": "168.0683350385314",
        "aphelion_distance": "2.028436869759163",
        "perihelion_time": "2459116.644855425736",
        "mean_anomaly": "299.5283092999539",
        "mean_motion": ".5206575054778243",
        "equinox": "J2000",
        "orbit_class": {
            "orbit_class_type": "AMO",
            "orbit_class_description": "Near-Earth asteroid orbits similar to that of 1221 Amor",
            "orbit_class_range": "1.017 AU < q (perihelion) < 1.3 AU"
        }
    },
    "is_sentry_object": false
}